OBJECT_NAME,OBJECT_ID,EPOCH,MEAN_MOTION,ECCENTRICITY,INCLINATION,RA_OF_ASC_NODE,ARG_OF_PERICENTER,MEAN_ANOMALY,EPHEMERIS_TYPE,CLASSIFICATION_TYPE,NORAD_CAT_ID,ELEMENT_SET_NO,REV_AT_EPOCH,BSTAR,MEAN_MOTION_DOT,MEAN_MOTION_DDOT
LEMUR-1,2014-033AL,2026-06-25T09:04:42.939264,14.85274564,.00493206,97.7884,326.0016,52.4472,308.1209,0,U,40044,999,64668,.21527407E-3,.1833E-4,0
LEMUR-2-GREENBERG,2017-042N,2026-06-25T10:48:50.287392,15.31562811,.00077423,97.3821,357.0385,342.7505,17.3473,0,U,42837,999,48965,.66753617E-3,.20317E-3,0
LEMUR-2-ANDIS,2017-042P,2026-06-25T11:03:32.306112,15.35151462,.00075279,97.3683,357.2617,340.3987,19.6966,0,U,42838,999,48972,.7763847E-3,.2649E-3,0
LEMUR-2-MONSON,2017-042Q,2026-06-25T11:27:21.370752,15.28227889,.00055317,97.4081,357.0248,333.9573,26.1388,0,U,42839,999,48943,.67582714E-3,.18549E-3,0
LEMUR-2-FURIAUS,2017-042R,2026-06-25T10:48:12.722400,15.30502582,.00075965,97.3771,354.9747,42.6204,317.5625,0,U,42840,999,48947,.74037123E-3,.21817E-3,0
LEMUR-2-PETERG,2017-042S,2026-06-25T10:48:08.745408,15.34204539,.00027352,97.3992,1.4954,318.2823,41.8211,0,U,42841,999,48970,.88920543E-3,.29442E-3,0
LEMUR-2-DEMBITZ,2017-042T,2026-06-25T11:16:33.865824,15.30526347,.00060159,97.3824,358.0245,359.1117,1.0112,0,U,42842,999,48961,.63754847E-3,.18776E-3,0
LEMUR-2-ZACHARY,2017-042W,2026-06-25T12:21:30.936096,15.50949573,.00023746,97.3594,8.3323,353.4358,6.6862,0,U,42845,999,49049,.1011021E-2,.58848E-3,0
LEMUR-2-AMANDA-SVANTE,2021-034B,2026-06-25T04:23:00.462336,15.34732723,.00031339,97.5760,254.6807,186.1710,173.9495,0,U,48269,999,28228,.11862943E-2,.40024E-3,0
LEMUR-2-SPECIAL-K,2021-034F,2026-06-25T04:52:34.615488,15.66721021,.00049381,97.5650,263.6529,222.4622,137.6256,0,U,48273,999,28294,.18743185E-2,.201266E-2,0
LEMUR-2-EMBRIONOVIS,2023-084AQ,2026-06-25T03:23:11.930784,15.37730349,.00074635,97.6292,320.6469,287.0247,73.0179,0,U,56970,999,16890,.43504792E-3,.16063E-3,0
LEMUR-2-DEVERILL-M-T,2023-100F,2026-06-25T13:14:49.557408,15.40140522,.00055415,99.4472,217.7270,21.2183,338.9285,0,U,57391,999,16253,.78274514E-3,.31372E-3,0
LEMUR-2-BASS,2023-174D,2026-06-25T04:27:39.511872,15.43338546,.00081068,97.3851,261.0108,137.7069,222.4805,0,U,58259,999,14659,.46742305E-3,.20799E-3,0
LEMUR-2-JK0903EM1407,2023-174CJ,2026-06-25T04:53:37.709952,15.52060153,.00052256,97.3929,266.9010,96.7387,263.4460,0,U,58336,999,14697,.54297387E-3,.3274E-3,0
LEMUR-2-MJR092620,2023-174CN,2026-06-25T06:06:41.981184,15.45150004,.00069005,97.3979,266.4330,94.2444,265.9594,0,U,58340,999,14689,.49476213E-3,.23413E-3,0
LEMUR-2-NIMBUS2000,2024-022A,2026-06-25T12:36:09.682848,15.40311749,.00103087,97.4107,26.6323,90.6972,269.5455,0,U,58899,999,13355,.69125525E-3,.27894E-3,0
LEMUR-2-VALHALLA,2024-022B,2026-06-25T12:33:29.424672,15.39908246,.00108046,97.4105,26.6163,86.8533,273.3949,0,U,58900,999,13355,.50227577E-3,.19961E-3,0
LEMUR-2-CAEL,2024-022E,2026-06-25T12:37:26.040576,15.41228150,.00090051,97.4088,27.5698,73.0333,287.1900,0,U,58903,999,13362,.51604458E-3,.21415E-3,0
LEMUR-2-JOHNNYTRUONG,2024-043BA,2026-06-25T10:05:59.339616,15.61050028,.00048653,97.5374,328.6374,151.8978,208.2542,0,U,59146,999,12932,.5741787E-3,.48389E-3,0
LEMUR-2-TOMATOKECHUP,2024-149D,2026-06-25T12:15:19.445472,15.36192816,.0002174,97.3803,258.5789,159.6336,200.4995,0,U,60471,999,10344,.38803538E-3,.13614E-3,0
LEMUR-2-STELLA,2024-149BT,2026-06-25T11:41:33.552960,15.11970744,.00015012,97.6740,258.9786,96.5927,263.5474,0,U,60533,999,10175,.78587926E-3,.13431E-3,0
LEMUR-2-MARHISYAM,2024-149BW,2026-06-25T11:17:35.183904,15.11407654,.0003342,97.6883,259.4196,103.3028,256.8575,0,U,60536,999,10173,.73608728E-3,.1238E-3,0
LEMUR-2-AHMED-ASRAR,2024-149DN,2026-06-25T03:59:00.991680,15.12874742,.00011347,97.7007,261.2370,24.8255,335.3030,0,U,60576,999,10177,.80076724E-3,.14037E-3,0
LEMUR-2-LLOYD,2024-149DP,2026-06-25T11:05:20.481504,15.09383703,.00051635,97.6746,257.5956,119.4895,240.6849,0,U,60577,999,10164,.76967055E-3,.12247E-3,0
LEMUR-2-SQUIRRELCOMM,2024-149DQ,2026-06-25T11:42:27.474336,15.07240187,.00059626,97.6719,257.3730,38.9778,321.1878,0,U,60578,999,10165,.485611E-3,.7261E-4,0
LEMUR-2-SIERRINI,2024-149DR,2026-06-25T11:53:55.266720,15.11108940,.00063656,97.6847,259.1248,141.2754,218.8933,0,U,60579,999,10171,.87457407E-3,.1461E-3,0
LEMUR-2-WILSON,2025-009CP,2026-06-25T11:02:56.313600,14.95198771,.00036994,97.7026,254.7799,34.8871,325.2592,0,U,62694,999,7859,.16766946E-3,.1786E-4,0
LEMUR-2-STAR-FOX,2025-009CR,2026-06-25T11:36:36.092448,15.02605703,.00043683,97.6953,258.0329,94.3525,265.8199,0,U,62696,999,7880,.53930689E-3,.7125E-4,0
LEMUR-2-ARIANNA,2025-009CU,2026-06-25T11:34:21.768960,15.02592038,.00047832,97.6894,257.7991,98.7471,261.4296,0,U,62699,999,7880,.67026082E-3,.8869E-4,0
